[{"OBJECT_NAME":"ELEVATION-1","OBJECT_ID":"2025-009BW","EPOCH":"2026-03-09T17:34:53.371488","MEAN_MOTION":15.36649756,"ECCENTRICITY":0.00031551,"INCLINATION":97.3895,"RA_OF_ASC_NODE":153.1078,"ARG_OF_PERICENTER":317.9798,"MEAN_ANOMALY":42.1204,"EPHEMERIS_TYPE":0,"CLASSIFICATION_TYPE":"U","NORAD_CAT_ID":62677,"ELEMENT_SET_NO":999,"REV_AT_EPOCH":12152,"BSTAR":0.00076188329,"MEAN_MOTION_DOT":0.00027253,"MEAN_MOTION_DDOT":0},{"OBJECT_NAME":"COSMOS 1461","OBJECT_ID":"1983-044A","EPOCH":"2026-03-09T23:27:40.254336","MEAN_MOTION":15.35034079,"ECCENTRICITY":0.00529955,"INCLINATION":64.9902,"RA_OF_ASC_NODE":19.3405,"ARG_OF_PERICENTER":227.9657,"MEAN_ANOMALY":131.6963,"EPHEMERIS_TYPE":0,"CLASSIFICATION_TYPE":"U","NORAD_CAT_ID":14064,"ELEMENT_SET_NO":999,"REV_AT_EPOCH":20189,"BSTAR":0.00068784348,"MEAN_MOTION_DOT":0.00024451,"MEAN_MOTION_DDOT":0}]
